[{"OBJECT_NAME":"GPS BIIF-11","OBJECT_ID":"2015-062A","EPOCH":"2026-02-01T15:56:56.146272","MEAN_MOTION":2.00567007,"ECCENTRICITY":0.01115218,"INCLINATION":56.8703,"RA_OF_ASC_NODE":36.0336,"ARG_OF_PERICENTER":231.112,"MEAN_ANOMALY":127.9151,"EPHEMERIS_TYPE":0,"CLASSIFICATION_TYPE":"U","NORAD_CAT_ID":41019,"ELEMENT_SET_NO":999,"REV_AT_EPOCH":7511,"BSTAR":0,"MEAN_MOTION_DOT":-5.6e-7,"MEAN_MOTION_DDOT":0},{"OBJECT_NAME":"ELEKTRO-L 2","OBJECT_ID":"2015-074A","EPOCH":"2026-02-01T21:58:32.153952","MEAN_MOTION":1.00271876,"ECCENTRICITY":0.00038011,"INCLINATION":6.3534,"RA_OF_ASC_NODE":72.2001,"ARG_OF_PERICENTER":223.1712,"MEAN_ANOMALY":151.8598,"EPHEMERIS_TYPE":0,"CLASSIFICATION_TYPE":"U","NORAD_CAT_ID":41105,"ELEMENT_SET_NO":999,"REV_AT_EPOCH":3715,"BSTAR":0,"MEAN_MOTION_DOT":-1.29e-6,"MEAN_MOTION_DDOT":0},{"OBJECT_NAME":"GSAT0209 (GALILEO 12)","OBJECT_ID":"2015-079A","EPOCH":"2026-01-30T04:35:54.644352","MEAN_MOTION":1.70474516,"ECCENTRICITY":0.0003694,"INCLINATION":55.7391,"RA_OF_ASC_NODE":105.0491,"ARG_OF_PERICENTER":326.2571,"MEAN_ANOMALY":33.7611,"EPHEMERIS_TYPE":0,"CLASSIFICATION_TYPE":"U","NORAD_CAT_ID":41174,"ELEMENT_SET_NO":999,"REV_AT_EPOCH":6242,"BSTAR":0,"MEAN_MOTION_DOT":-2.7e-7,"MEAN_MOTION_DDOT":0},{"OBJECT_NAME":"GSAT0208 (GALILEO 11)","OBJECT_ID":"2015-079B","EPOCH":"2026-01-31T14:02:22.254720","MEAN_MOTION":1.70474389,"ECCENTRICITY":0.00032079,"INCLINATION":55.7383,"RA_OF_ASC_NODE":105.0079,"ARG_OF_PERICENTER":326.0394,"MEAN_ANOMALY":33.9902,"EPHEMERIS_TYPE":0,"CLASSIFICATION_TYPE":"U","NORAD_CAT_ID":41175,"ELEMENT_SET_NO":999,"REV_AT_EPOCH":6286,"BSTAR":0,"MEAN_MOTION_DOT":-2.2e-7,"MEAN_MOTION_DDOT":0},{"OBJECT_NAME":"GPS BIIF-12","OBJECT_ID":"2016-007A","EPOCH":"2026-02-01T06:00:06.734880","MEAN_MOTION":2.00558177,"ECCENTRICITY":0.00944465,"INCLINATION":55.435,"RA_OF_ASC_NODE":94.8505,"ARG_OF_PERICENTER":245.0741,"MEAN_ANOMALY":114.0056,"EPHEMERIS_TYPE":0,"CLASSIFICATION_TYPE":"U","NORAD_CAT_ID":41328,"ELEMENT_SET_NO":999,"REV_AT_EPOCH":7311,"BSTAR":0,"MEAN_MOTION_DOT":-1.3e-7,"MEAN_MOTION_DDOT":0},{"OBJECT_NAME":"GSAT0211 (GALILEO 14)","OBJECT_ID":"2016-030A","EPOCH":"2026-01-29T22:47:01.499424","MEAN_MOTION":1.7047344,"ECCENTRICITY":0.00040665,"INCLINATION":55.1388,"RA_OF_ASC_NODE":225.4945,"ARG_OF_PERICENTER":27.1098,"MEAN_ANOMALY":332.9464,"EPHEMERIS_TYPE":0,"CLASSIFICATION_TYPE":"U","NORAD_CAT_ID":41549,"ELEMENT_SET_NO":999,"REV_AT_EPOCH":6031,"BSTAR":0,"MEAN_MOTION_DOT":8.1e-7,"MEAN_MOTION_DDOT":0},{"OBJECT_NAME":"GSAT0210 (GALILEO 13)","OBJECT_ID":"2016-030B","EPOCH":"2026-02-01T13:16:13.715328","MEAN_MOTION":1.70473755,"ECCENTRICITY":7.902e-5,"INCLINATION":55.1373,"RA_OF_ASC_NODE":225.4208,"ARG_OF_PERICENTER":177.0901,"MEAN_ANOMALY":182.9255,"EPHEMERIS_TYPE":0,"CLASSIFICATION_TYPE":"U","NORAD_CAT_ID":41550,"ELEMENT_SET_NO":999,"REV_AT_EPOCH":6035,"BSTAR":0,"MEAN_MOTION_DOT":5.6e-7,"MEAN_MOTION_DDOT":0},{"OBJECT_NAME":"INSAT-3DR","OBJECT_ID":"2016-054A","EPOCH":"2026-02-01T17:15:43.388352","MEAN_MOTION":1.00270875,"ECCENTRICITY":0.00140948,"INCLINATION":0.0429,"RA_OF_ASC_NODE":93.7322,"ARG_OF_PERICENTER":184.1421,"MEAN_ANOMALY":186.9551,"EPHEMERIS_TYPE":0,"CLASSIFICATION_TYPE":"U","NORAD_CAT_ID":41752,"ELEMENT_SET_NO":999,"REV_AT_EPOCH":3446,"BSTAR":0,"MEAN_MOTION_DOT":-8.6e-7,"MEAN_MOTION_DDOT":0},{"OBJECT_NAME":"GSAT0207 (GALILEO 15)","OBJECT_ID":"2016-069A","EPOCH":"2026-01-31T01:42:56.119104","MEAN_MOTION":1.70474411,"ECCENTRICITY":0.00040107,"INCLINATION":55.4094,"RA_OF_ASC_NODE":104.8824,"ARG_OF_PERICENTER":308.3923,"MEAN_ANOMALY":51.6185,"EPHEMERIS_TYPE":0,"CLASSIFICATION_TYPE":"U","NORAD_CAT_ID":41859,"ELEMENT_SET_NO":999,"REV_AT_EPOCH":5706,"BSTAR":0,"MEAN_MOTION_DOT":-2.5e-7,"MEAN_MOTION_DDOT":0},{"OBJECT_NAME":"GSAT0212 (GALILEO 16)","OBJECT_ID":"2016-069B","EPOCH":"2026-02-01T16:26:10.085280","MEAN_MOTION":1.70474658,"ECCENTRICITY":0.0002754,"INCLINATION":55.408,"RA_OF_ASC_NODE":104.8328,"ARG_OF_PERICENTER":343.6767,"MEAN_ANOMALY":16.3713,"EPHEMERIS_TYPE":0,"CLASSIFICATION_TYPE":"U","NORAD_CAT_ID":41860,"ELEMENT_SET_NO":999,"REV_AT_EPOCH":5734,"BSTAR":0,"MEAN_MOTION_DOT":-1.9e-7,"MEAN_MOTION_DDOT":0},{"OBJECT_NAME":"GSAT0213 (GALILEO 17)","OBJECT_ID":"2016-069C","EPOCH":"2026-02-01T11:10:40.025856","MEAN_MOTION":1.70474953,"ECCENTRICITY":0.00043785,"INCLINATION":55.4103,"RA_OF_ASC_NODE":104.8466,"ARG_OF_PERICENTER":286.8241,"MEAN_ANOMALY":73.1834,"EPHEMERIS_TYPE":0,"CLASSIFICATION_TYPE":"U","NORAD_CAT_ID":41861,"ELEMENT_SET_NO":999,"REV_AT_EPOCH":5720,"BSTAR":0,"MEAN_MOTION_DOT":-2.0e-7,"MEAN_MOTION_DDOT":0},{"OBJECT_NAME":"GSAT0214 (GALILEO 18)","OBJECT_ID":"2016-069D","EPOCH":"2026-01-30T20:26:54.437280","MEAN_MOTION":1.70474819,"ECCENTRICITY":0.000323,"INCLINATION":55.4077,"RA_OF_ASC_NODE":104.8843,"ARG_OF_PERICENTER":291.3477,"MEAN_ANOMALY":68.6631,"EPHEMERIS_TYPE":0,"CLASSIFICATION_TYPE":"U","NORAD_CAT_ID":41862,"ELEMENT_SET_NO":999,"REV_AT_EPOCH":5730,"BSTAR":0,"MEAN_MOTION_DOT":-2.5e-7,"MEAN_MOTION_DDOT":0},{"OBJECT_NAME":"GOES 16","OBJECT_ID":"2016-071A","EPOCH":"2026-02-01T21:32:42.130176","MEAN_MOTION":1.00271265,"ECCENTRICITY":0.0003121,"INCLINATION":0.1469,"RA_OF_ASC_NODE":94.4656,"ARG_OF_PERICENTER":194.3382,"MEAN_ANOMALY":61.7427,"EPHEMERIS_TYPE":0,"CLASSIFICATION_TYPE":"U","NORAD_CAT_ID":41866,"ELEMENT_SET_NO":999,"REV_AT_EPOCH":3374,"BSTAR":0,"MEAN_MOTION_DOT":-1.01e-6,"MEAN_MOTION_DDOT":0},{"OBJECT_NAME":"GSAT-17","OBJECT_ID":"2017-040B","EPOCH":"2026-02-01T22:29:21.701472","MEAN_MOTION":1.00270156,"ECCENTRICITY":0.00064701,"INCLINATION":0.0255,"RA_OF_ASC_NODE":89.7635,"ARG_OF_PERICENTER":190.4735,"MEAN_ANOMALY":282.7143,"EPHEMERIS_TYPE":0,"CLASSIFICATION_TYPE":"U","NORAD_CAT_ID":42815,"ELEMENT_SET_NO":999,"REV_AT_EPOCH":3143,"BSTAR":0,"MEAN_MOTION_DOT":-2.67e-6,"MEAN_MOTION_DDOT":0},{"OBJECT_NAME":"GSAT0215 (GALILEO 19)","OBJECT_ID":"2017-079A","EPOCH":"2026-01-31T22:17:23.039232","MEAN_MOTION":1.70474177,"ECCENTRICITY":0.00010425,"INCLINATION":55.1164,"RA_OF_ASC_NODE":225.2537,"ARG_OF_PERICENTER":25.5758,"MEAN_ANOMALY":334.4495,"EPHEMERIS_TYPE":0,"CLASSIFICATION_TYPE":"U","NORAD_CAT_ID":43055,"ELEMENT_SET_NO":999,"REV_AT_EPOCH":5066,"BSTAR":0,"MEAN_MOTION_DOT":6.1e-7,"MEAN_MOTION_DDOT":0},{"OBJECT_NAME":"GSAT0216 (GALILEO 20)","OBJECT_ID":"2017-079B","EPOCH":"2026-02-01T19:21:26.103168","MEAN_MOTION":1.70474332,"ECCENTRICITY":0.00018573,"INCLINATION":55.115,"RA_OF_ASC_NODE":225.2294,"ARG_OF_PERICENTER":335.1872,"MEAN_ANOMALY":24.8164,"EPHEMERIS_TYPE":0,"CLASSIFICATION_TYPE":"U","NORAD_CAT_ID":43056,"ELEMENT_SET_NO":999,"REV_AT_EPOCH":5069,"BSTAR":0,"MEAN_MOTION_DOT":5.4e-7,"MEAN_MOTION_DDOT":0},{"OBJECT_NAME":"GSAT0217 (GALILEO 21)","OBJECT_ID":"2017-079C","EPOCH":"2026-01-30T16:20:37.794336","MEAN_MOTION":1.70474153,"ECCENTRICITY":0.00025648,"INCLINATION":55.1157,"RA_OF_ASC_NODE":225.2857,"ARG_OF_PERICENTER":3.492,"MEAN_ANOMALY":356.5398,"EPHEMERIS_TYPE":0,"CLASSIFICATION_TYPE":"U","NORAD_CAT_ID":43057,"ELEMENT_SET_NO":999,"REV_AT_EPOCH":5064,"BSTAR":0,"MEAN_MOTION_DOT":7.4e-7,"MEAN_MOTION_DDOT":0}]
